OSCAR 7 (AO-7)          
1 07530U 74089B   24366.95886542 -.00000029  00000+0  11122-3 0  9992
2 07530 101.9905   3.5441 0012384  67.1464 307.9019 12.53684506293828
PHASE 3B (AO-10)        
1 14129U 83058B   24366.09220930 -.00000083  00000+0  00000+0 0  9997
2 14129  27.2164 308.0831 6043467 329.3267   6.2135  2.05871509284510
UOSAT 2 (UO-11)         
1 14781U 84021B   24366.85938012  .00005406  00000+0  58884-3 0  9993
2 14781  97.7330 330.7146 0008904 135.4735 224.7199 14.88376145177876
LUSAT (LO-19)           
1 20442U 90005G   24366.87018394  .00000763  00000+0  29108-3 0  9995
2 20442  98.8952   2.5131 0011143 331.4527  28.6045 14.33814123826160
EYESAT A (AO-27)        
1 22825U 93061C   24366.42085017  .00000504  00000+0  20982-3 0  9998
2 22825  98.7625  60.9973 0007787 216.3024 143.7630 14.30694791630815
ITAMSAT (IO-26)         
1 22826U 93061D   24366.90481410  .00000605  00000+0  24660-3 0  9998
2 22826  98.7570  61.3569 0008585 199.0043 161.0820 14.31097894631172
RADIO ROSTO (RS-15)     
1 23439U 94085A   24366.89175039 -.00000061  00000+0 -52597-3 0  9999
2 23439  64.8171  84.0480 0145868 105.6743 256.0327 11.27579951235880
JAS-2 (FO-29)           
1 24278U 96046B   24366.16391272  .00000080  00000+0  11594-3 0  9990
2 24278  98.5889 275.0438 0350575  38.2228 324.3219 13.53228207401070
TECHSAT 1B (GO-32)      
1 25397U 98043D   24366.66108749  .00000459  00000+0  21912-3 0  9997
2 25397  98.9502 336.6298 0000882   1.0306 359.0874 14.24224065375524
ISS (ZARYA)             
1 25544U 98067A   24366.81307813  .00027763  00000+0  48311-3 0  9996
2 25544  51.6382  56.2039 0006091  28.0496 332.0820 15.50544003489205
PCSAT (NO-44)           
1 26931U 01043C   24366.73673751  .00000840  00000+0  34630-3 0  9999
2 26931  67.0494 181.0680 0006454 260.5488  99.4885 14.31561545214228
SAUDISAT 1C (SO-50)     
1 27607U 02058C   24366.87630414  .00005872  00000+0  77113-3 0  9994
2 27607  64.5563 333.1584 0037034  16.8171 343.4152 14.80640120185575
CUTE-1 (CO-55)          
1 27844U 03031E   24366.95551906  .00001393  00000+0  62873-3 0  9997
2 27844  98.6776  11.3005 0008725 293.8546  66.1718 14.23737601115920
CUBESAT XI-IV (CO-57)   
1 27848U 03031J   24365.49533462  .00001189  00000+0  54607-3 0  9995
2 27848  98.6804   9.9829 0008828 316.8669  43.1817 14.23107145115456
MOZHAYETS 4 (RS-22)     
1 27939U 03042A   24366.94251352  .00004876  00000+0  79312-3 0  9990
2 27939  98.3083 166.7797 0012096 150.7204   0.5026 14.71492364137211
CUBESAT XI-V            
1 28895U 05043F   24366.33804128  .00005903  00000+0  99531-3 0  9990
2 28895  98.2250 143.0623 0016001  94.5347 265.7687 14.69783433 23395
CUTE-1.7+APD II (CO-65) 
1 32785U 08021C   24366.82559545  .00013768  00000+0  10726-2 0  9992
2 32785  97.7702 331.3677 0011784  53.0196 307.2105 15.01274184905087
SEEDS II (CO-66)        
1 32791U 08021J   24366.66818929  .00027992  00000+0  16270-2 0  9999
2 32791  97.7126 338.0770 0005490  23.8385 336.3098 15.12036772906271
YUBILEINY (RS-30)       
1 32953U 08025A   24366.89191769  .00000037  00000+0  19673-3 0  9996
2 32953  82.5046 326.5119 0020382  36.0335 324.2114 12.43156249753550
KKS-1 (KISEKI)          
1 33499U 09002H   24366.88961439  .00006002  00000+0  78931-3 0  9996
2 33499  98.1284 270.8337 0007376 204.9119 155.1737 14.80561395857350
SWISSCUBE               
1 35932U 09051B   24366.64351943  .00004731  00000+0  98430-3 0  9994
2 35932  98.4477 253.7997 0008256  69.3645 290.8439 14.60509912811360
BEESAT-1                
1 35933U 09051C   24366.62807071  .00004037  00000+0  85010-3 0  9990
2 35933  98.4407 254.4097 0006696  80.7718 279.4238 14.60045994811429
ITUPSAT1                
1 35935U 09051E   25001.13320627  .00003846  00000+0  83060-3 0  9992
2 35935  98.4504 254.5880 0008920  86.2111 274.0107 14.58904949811146
XIWANG-1 (HOPE-1)       
1 36122U 09072B   24366.86574025 -.00000030  00000+0  35230-4 0  9990
2 36122 100.3261 320.1882 0007705  15.3069 344.8276 13.16416358722964
O/OREOS (USA 219)       
1 37224U 10062C   25001.05864521  .00007224  00000+0  75516-3 0  9997
2 37224  71.9700 202.5124 0015191 351.7870   8.3047 14.89855313 37276
JUGNU                   
1 37839U 11058B   24366.93820458  .00001034  00000+0  40180-3 0  9998
2 37839  19.9619 301.3644 0018489 319.3417 104.0665 14.13469675683629
SRMSAT                  
1 37841U 11058D   24366.83519545  .00000879  00000+0  33488-3 0  9991
2 37841  19.9731  41.1558 0011969 107.4573  50.1205 14.11325593682511
STRAND-1                
1 39090U 13009E   24366.98166214  .00001379  00000+0  48346-3 0  9999
2 39090  98.3766 189.8964 0009299  27.9918 332.1767 14.36553485620654
ZACUBE-1 (TSHEPISOSAT)  
1 39417U 13066B   24366.85670806  .00012228  00000+0  11367-2 0  9995
2 39417  97.7607 319.2531 0045169 223.8959 135.8669 14.93714349601043
GOMX-1                  
1 39430U 13066Q   24366.89062031  .00008121  00000+0  12907-2 0  9997
2 39430  97.7023 229.2567 0135178 343.6800  16.0072 14.66335730591819
