OBJECT_NAME,OBJECT_ID,EPOCH,MEAN_MOTION,ECCENTRICITY,INCLINATION,RA_OF_ASC_NODE,ARG_OF_PERICENTER,MEAN_ANOMALY,EPHEMERIS_TYPE,CLASSIFICATION_TYPE,NORAD_CAT_ID,ELEMENT_SET_NO,REV_AT_EPOCH,BSTAR,MEAN_MOTION_DOT,MEAN_MOTION_DDOT
OSCAR 7 (AO-7),1974-089B,2024-12-31T23:00:45.972288,12.53684506,.0012384,101.9905,3.5441,67.1464,307.9019,0,U,7530,999,29382,.11122E-3,-.29E-6,0
PHASE 3B (AO-10),1983-058B,2024-12-31T02:12:46.883520,2.05871509,.6043467,27.2164,308.0831,329.3267,6.2135,0,U,14129,999,28451,0,-.83E-6,0
UOSAT 2 (UO-11),1984-021B,2024-12-31T20:37:30.442368,14.88376145,.0008904,97.7330,330.7146,135.4735,224.7199,0,U,14781,999,17787,.58884E-3,.5406E-4,0
LUSAT (LO-19),1990-005G,2024-12-31T20:53:03.892416,14.33814123,.0011143,98.8952,2.5131,331.4527,28.6045,0,U,20442,999,82616,.29108E-3,.763E-5,0
EYESAT A (AO-27),1993-061C,2024-12-31T10:06:01.454688,14.30694791,.0007787,98.7625,60.9973,216.3024,143.7630,0,U,22825,999,63081,.20982E-3,.504E-5,0
ITAMSAT (IO-26),1993-061D,2024-12-31T21:42:55.938240,14.31097894,.0008585,98.7570,61.3569,199.0043,161.0820,0,U,22826,999,63117,.2466E-3,.605E-5,0
RADIO ROSTO (RS-15),1994-085A,2024-12-31T21:24:07.233696,11.27579951,.0145868,64.8171,84.0480,105.6743,256.0327,0,U,23439,999,23588,-.52597E-3,-.61E-6,0
JAS-2 (FO-29),1996-046B,2024-12-31T03:56:02.059008,13.53228207,.0350575,98.5889,275.0438,38.2228,324.3219,0,U,24278,999,40107,.11594E-3,.8E-6,0
TECHSAT 1B (GO-32),1998-043D,2024-12-31T15:51:57.959136,14.24224065,.0000882,98.9502,336.6298,1.0306,359.0874,0,U,25397,999,37552,.21912E-3,.459E-5,0
ISS (ZARYA),1998-067A,2024-12-31T19:30:49.950432,15.50544003,.0006091,51.6382,56.2039,28.0496,332.0820,0,U,25544,999,48920,.48311E-3,.27763E-3,0
PCSAT (NO-44),2001-043C,2024-12-31T17:40:54.120864,14.31561545,.0006454,67.0494,181.0680,260.5488,99.4885,0,U,26931,999,21422,.3463E-3,.84E-5,0
SAUDISAT 1C (SO-50),2002-058C,2024-12-31T21:01:52.677696,14.80640120,.0037034,64.5563,333.1584,16.8171,343.4152,0,U,27607,999,18557,.77113E-3,.5872E-4,0
CUTE-1 (CO-55),2003-031E,2024-12-31T22:55:56.846784,14.23737601,.0008725,98.6776,11.3005,293.8546,66.1718,0,U,27844,999,11592,.62873E-3,.1393E-4,0
CUBESAT XI-IV (CO-57),2003-031J,2024-12-30T11:53:16.911168,14.23107145,.0008828,98.6804,9.9829,316.8669,43.1817,0,U,27848,999,11545,.54607E-3,.1189E-4,0
MOZHAYETS 4 (RS-22),2003-042A,2024-12-31T22:37:13.168128,14.71492364,.0012096,98.3083,166.7797,150.7204,0.5026,0,U,27939,999,13721,.79312E-3,.4876E-4,0
CUBESAT XI-V,2005-043F,2024-12-31T08:06:46.766592,14.69783433,.0016001,98.2250,143.0623,94.5347,265.7687,0,U,28895,999,2339,.99531E-3,.5903E-4,0
CUTE-1.7+APD II (CO-65),2008-021C,2024-12-31T19:48:51.446880,15.01274184,.0011784,97.7702,331.3677,53.0196,307.2105,0,U,32785,999,90508,.10726E-2,.13768E-3,0
SEEDS II (CO-66),2008-021J,2024-12-31T16:02:11.554656,15.12036772,.000549,97.7126,338.0770,23.8385,336.3098,0,U,32791,999,90627,.1627E-2,.27992E-3,0
YUBILEINY (RS-30),2008-025A,2024-12-31T21:24:21.688416,12.43156249,.0020382,82.5046,326.5119,36.0335,324.2114,0,U,32953,999,75355,.19673E-3,.37E-6,0
KKS-1 (KISEKI),2009-002H,2024-12-31T21:21:02.683296,14.80561395,.0007376,98.1284,270.8337,204.9119,155.1737,0,U,33499,999,85735,.78931E-3,.6002E-4,0
SWISSCUBE,2009-051B,2024-12-31T15:26:40.078752,14.60509912,.0008256,98.4477,253.7997,69.3645,290.8439,0,U,35932,999,81136,.9843E-3,.4731E-4,0
BEESAT-1,2009-051C,2024-12-31T15:04:25.309344,14.60045994,.0006696,98.4407,254.4097,80.7718,279.4238,0,U,35933,999,81142,.8501E-3,.4037E-4,0
ITUPSAT1,2009-051E,2025-01-01T03:11:49.021728,14.58904949,.000892,98.4504,254.5880,86.2111,274.0107,0,U,35935,999,81114,.8306E-3,.3846E-4,0
XIWANG-1 (HOPE-1),2009-072B,2024-12-31T20:46:39.957600,13.16416358,.0007705,100.3261,320.1882,15.3069,344.8276,0,U,36122,999,72296,.3523E-4,-.3E-6,0
O/OREOS (USA 219),2010-062C,2025-01-01T01:24:26.946144,14.89855313,.0015191,71.9700,202.5124,351.7870,8.3047,0,U,37224,999,3727,.75516E-3,.7224E-4,0
JUGNU,2011-058B,2024-12-31T22:31:00.875712,14.13469675,.0018489,19.9619,301.3644,319.3417,104.0665,0,U,37839,999,68362,.4018E-3,.1034E-4,0
SRMSAT,2011-058D,2024-12-31T20:02:40.886880,14.11325593,.0011969,19.9731,41.1558,107.4573,50.1205,0,U,37841,999,68251,.33488E-3,.879E-5,0
STRAND-1,2013-009E,2024-12-31T23:33:35.608896,14.36553485,.0009299,98.3766,189.8964,27.9918,332.1767,0,U,39090,999,62065,.48346E-3,.1379E-4,0
ZACUBE-1 (TSHEPISOSAT),2013-066B,2024-12-31T20:33:39.576384,14.93714349,.0045169,97.7607,319.2531,223.8959,135.8669,0,U,39417,999,60104,.11367E-2,.12228E-3,0
GOMX-1,2013-066Q,2024-12-31T21:22:29.594784,14.66335730,.0135178,97.7023,229.2567,343.6800,16.0072,0,U,39430,999,59181,.12907E-2,.8121E-4,0
